[{"OBJECT_NAME":"QIANFAN-35","OBJECT_ID":"2024-185S","EPOCH":"2026-03-05T05:46:31.244160","MEAN_MOTION":14.28118132,"ECCENTRICITY":0.00075171,"INCLINATION":88.9745,"RA_OF_ASC_NODE":67.176,"ARG_OF_PERICENTER":33.1145,"MEAN_ANOMALY":327.0519,"EPHEMERIS_TYPE":0,"CLASSIFICATION_TYPE":"U","NORAD_CAT_ID":61568,"ELEMENT_SET_NO":999,"REV_AT_EPOCH":8195,"BSTAR":0.00046459808,"MEAN_MOTION_DOT":1.169e-5,"MEAN_MOTION_DDOT":0},{"OBJECT_NAME":"QIANFAN-36","OBJECT_ID":"2024-185T","EPOCH":"2026-03-05T06:19:27.136992","MEAN_MOTION":13.5561367,"ECCENTRICITY":0.00069736,"INCLINATION":88.9717,"RA_OF_ASC_NODE":72.4319,"ARG_OF_PERICENTER":147.1956,"MEAN_ANOMALY":212.9632,"EPHEMERIS_TYPE":0,"CLASSIFICATION_TYPE":"U","NORAD_CAT_ID":61569,"ELEMENT_SET_NO":999,"REV_AT_EPOCH":7910,"BSTAR":0.00017732646,"MEAN_MOTION_DOT":1.35e-6,"MEAN_MOTION_DDOT":0},{"OBJECT_NAME":"QIANFAN-37","OBJECT_ID":"2024-232B","EPOCH":"2026-03-05T06:39:37.365120","MEAN_MOTION":13.51005279,"ECCENTRICITY":0.00017065,"INCLINATION":89.0052,"RA_OF_ASC_NODE":32.992,"ARG_OF_PERICENTER":97.2071,"MEAN_ANOMALY":262.9274,"EPHEMERIS_TYPE":0,"CLASSIFICATION_TYPE":"U","NORAD_CAT_ID":62238,"ELEMENT_SET_NO":999,"REV_AT_EPOCH":11031,"BSTAR":0.00011656226,"MEAN_MOTION_DOT":8.7e-7,"MEAN_MOTION_DDOT":0},{"OBJECT_NAME":"QIANFAN-38","OBJECT_ID":"2024-232C","EPOCH":"2026-03-05T07:15:06.006240","MEAN_MOTION":13.5100384,"ECCENTRICITY":0.00134517,"INCLINATION":89.0059,"RA_OF_ASC_NODE":32.9109,"ARG_OF_PERICENTER":324.3121,"MEAN_ANOMALY":35.713,"EPHEMERIS_TYPE":0,"CLASSIFICATION_TYPE":"U","NORAD_CAT_ID":62239,"ELEMENT_SET_NO":999,"REV_AT_EPOCH":11037,"BSTAR":0.0001116091,"MEAN_MOTION_DOT":8.4e-7,"MEAN_MOTION_DDOT":0},{"OBJECT_NAME":"QIANFAN-39","OBJECT_ID":"2024-232D","EPOCH":"2026-03-05T06:13:34.348512","MEAN_MOTION":14.25436178,"ECCENTRICITY":0.00165199,"INCLINATION":89.0057,"RA_OF_ASC_NODE":27.8687,"ARG_OF_PERICENTER":160.1404,"MEAN_ANOMALY":200.0436,"EPHEMERIS_TYPE":0,"CLASSIFICATION_TYPE":"U","NORAD_CAT_ID":62240,"ELEMENT_SET_NO":999,"REV_AT_EPOCH":11314,"BSTAR":0.00021933791,"MEAN_MOTION_DOT":5.33e-6,"MEAN_MOTION_DDOT":0},{"OBJECT_NAME":"QIANFAN-40","OBJECT_ID":"2024-232E","EPOCH":"2026-03-05T06:15:50.839776","MEAN_MOTION":13.51003032,"ECCENTRICITY":0.00127687,"INCLINATION":89.0087,"RA_OF_ASC_NODE":32.5227,"ARG_OF_PERICENTER":333.5297,"MEAN_ANOMALY":26.52,"EPHEMERIS_TYPE":0,"CLASSIFICATION_TYPE":"U","NORAD_CAT_ID":62241,"ELEMENT_SET_NO":999,"REV_AT_EPOCH":11073,"BSTAR":0.00010132409,"MEAN_MOTION_DOT":7.7e-7,"MEAN_MOTION_DDOT":0},{"OBJECT_NAME":"QIANFAN-41","OBJECT_ID":"2024-232F","EPOCH":"2026-03-05T06:27:45.512064","MEAN_MOTION":13.51004735,"ECCENTRICITY":0.00127488,"INCLINATION":89.0057,"RA_OF_ASC_NODE":32.8644,"ARG_OF_PERICENTER":320.4887,"MEAN_ANOMALY":39.5334,"EPHEMERIS_TYPE":0,"CLASSIFICATION_TYPE":"U","NORAD_CAT_ID":62242,"ELEMENT_SET_NO":999,"REV_AT_EPOCH":11039,"BSTAR":0.00011483803,"MEAN_MOTION_DOT":8.6e-7,"MEAN_MOTION_DDOT":0},{"OBJECT_NAME":"QIANFAN-42","OBJECT_ID":"2024-232G","EPOCH":"2026-03-05T05:45:09.793152","MEAN_MOTION":14.24530036,"ECCENTRICITY":0.00151349,"INCLINATION":89.0055,"RA_OF_ASC_NODE":27.9304,"ARG_OF_PERICENTER":165.6444,"MEAN_ANOMALY":194.5181,"EPHEMERIS_TYPE":0,"CLASSIFICATION_TYPE":"U","NORAD_CAT_ID":62243,"ELEMENT_SET_NO":999,"REV_AT_EPOCH":11311,"BSTAR":0.00020686678,"MEAN_MOTION_DOT":4.95e-6,"MEAN_MOTION_DDOT":0},{"OBJECT_NAME":"QIANFAN-43","OBJECT_ID":"2024-232H","EPOCH":"2026-03-05T06:21:46.397376","MEAN_MOTION":13.51004764,"ECCENTRICITY":0.00144206,"INCLINATION":89.0061,"RA_OF_ASC_NODE":32.9338,"ARG_OF_PERICENTER":325.3169,"MEAN_ANOMALY":34.7041,"EPHEMERIS_TYPE":0,"CLASSIFICATION_TYPE":"U","NORAD_CAT_ID":62244,"ELEMENT_SET_NO":999,"REV_AT_EPOCH":7900,"BSTAR":0.00011467538,"MEAN_MOTION_DOT":8.6e-7,"MEAN_MOTION_DDOT":0},{"OBJECT_NAME":"QIANFAN-44","OBJECT_ID":"2024-232J","EPOCH":"2026-03-05T06:04:00.630912","MEAN_MOTION":13.51002662,"ECCENTRICITY":0.0012564,"INCLINATION":89.0059,"RA_OF_ASC_NODE":32.7444,"ARG_OF_PERICENTER":323.1682,"MEAN_ANOMALY":36.8605,"EPHEMERIS_TYPE":0,"CLASSIFICATION_TYPE":"U","NORAD_CAT_ID":62245,"ELEMENT_SET_NO":999,"REV_AT_EPOCH":11047,"BSTAR":8.953934e-5,"MEAN_MOTION_DOT":7.0e-7,"MEAN_MOTION_DDOT":0},{"OBJECT_NAME":"QIANFAN-45","OBJECT_ID":"2024-232K","EPOCH":"2026-03-05T05:16:38.984160","MEAN_MOTION":13.51000358,"ECCENTRICITY":0.00132085,"INCLINATION":89.0063,"RA_OF_ASC_NODE":32.8971,"ARG_OF_PERICENTER":322.4791,"MEAN_ANOMALY":37.5438,"EPHEMERIS_TYPE":0,"CLASSIFICATION_TYPE":"U","NORAD_CAT_ID":62246,"ELEMENT_SET_NO":999,"REV_AT_EPOCH":11039,"BSTAR":9.7330536e-5,"MEAN_MOTION_DOT":7.5e-7,"MEAN_MOTION_DDOT":0},{"OBJECT_NAME":"QIANFAN-46","OBJECT_ID":"2024-232L","EPOCH":"2026-03-05T05:52:08.413248","MEAN_MOTION":13.51003308,"ECCENTRICITY":0.00134399,"INCLINATION":89.0059,"RA_OF_ASC_NODE":32.9602,"ARG_OF_PERICENTER":328.3091,"MEAN_ANOMALY":31.725,"EPHEMERIS_TYPE":0,"CLASSIFICATION_TYPE":"U","NORAD_CAT_ID":62247,"ELEMENT_SET_NO":999,"REV_AT_EPOCH":11035,"BSTAR":0.00012032214,"MEAN_MOTION_DOT":9.0e-7,"MEAN_MOTION_DDOT":0},{"OBJECT_NAME":"QIANFAN-47","OBJECT_ID":"2024-232M","EPOCH":"2026-03-05T05:58:03.662400","MEAN_MOTION":13.51003193,"ECCENTRICITY":0.00138313,"INCLINATION":89.0055,"RA_OF_ASC_NODE":32.8895,"ARG_OF_PERICENTER":327.1414,"MEAN_ANOMALY":32.8876,"EPHEMERIS_TYPE":0,"CLASSIFICATION_TYPE":"U","NORAD_CAT_ID":62248,"ELEMENT_SET_NO":999,"REV_AT_EPOCH":11038,"BSTAR":0.00010166237,"MEAN_MOTION_DOT":7.8e-7,"MEAN_MOTION_DDOT":0},{"OBJECT_NAME":"QIANFAN-48","OBJECT_ID":"2024-232N","EPOCH":"2026-03-05T05:04:44.842368","MEAN_MOTION":13.51003318,"ECCENTRICITY":0.00161719,"INCLINATION":89.0058,"RA_OF_ASC_NODE":32.8984,"ARG_OF_PERICENTER":328.9753,"MEAN_ANOMALY":31.0442,"EPHEMERIS_TYPE":0,"CLASSIFICATION_TYPE":"U","NORAD_CAT_ID":62249,"ELEMENT_SET_NO":999,"REV_AT_EPOCH":11038,"BSTAR":7.6585191e-5,"MEAN_MOTION_DOT":6.1e-7,"MEAN_MOTION_DDOT":0},{"OBJECT_NAME":"QIANFAN-49","OBJECT_ID":"2024-232P","EPOCH":"2026-03-05T06:33:37.706112","MEAN_MOTION":13.51002452,"ECCENTRICITY":0.00130794,"INCLINATION":89.0058,"RA_OF_ASC_NODE":32.9041,"ARG_OF_PERICENTER":324.3959,"MEAN_ANOMALY":35.6319,"EPHEMERIS_TYPE":0,"CLASSIFICATION_TYPE":"U","NORAD_CAT_ID":62250,"ELEMENT_SET_NO":999,"REV_AT_EPOCH":7898,"BSTAR":8.922238e-5,"MEAN_MOTION_DOT":6.9e-7,"MEAN_MOTION_DDOT":0},{"OBJECT_NAME":"QIANFAN-50","OBJECT_ID":"2024-232Q","EPOCH":"2026-03-05T07:09:09.672768","MEAN_MOTION":13.51003424,"ECCENTRICITY":0.00147658,"INCLINATION":89.0063,"RA_OF_ASC_NODE":32.9142,"ARG_OF_PERICENTER":324.9564,"MEAN_ANOMALY":35.0615,"EPHEMERIS_TYPE":0,"CLASSIFICATION_TYPE":"U","NORAD_CAT_ID":62251,"ELEMENT_SET_NO":999,"REV_AT_EPOCH":7901,"BSTAR":0.00010219564,"MEAN_MOTION_DOT":7.8e-7,"MEAN_MOTION_DDOT":0},{"OBJECT_NAME":"QIANFAN-51","OBJECT_ID":"2024-232R","EPOCH":"2026-03-05T06:45:30.448224","MEAN_MOTION":13.51004236,"ECCENTRICITY":0.00124039,"INCLINATION":89.0057,"RA_OF_ASC_NODE":32.9046,"ARG_OF_PERICENTER":330.3432,"MEAN_ANOMALY":29.7014,"EPHEMERIS_TYPE":0,"CLASSIFICATION_TYPE":"U","NORAD_CAT_ID":62252,"ELEMENT_SET_NO":999,"REV_AT_EPOCH":7900,"BSTAR":9.2163577e-5,"MEAN_MOTION_DOT":7.1e-7,"MEAN_MOTION_DDOT":0}]
