QIANFAN-35              
1 61568U 24185S   26064.24063940  .00001169  00000+0  46460-3 0  9991
2 61568  88.9745  67.1760 0007517  33.1145 327.0519 14.28118132 81954
QIANFAN-36              
1 61569U 24185T   26064.26350853  .00000135  00000+0  17733-3 0  9999
2 61569  88.9717  72.4319 0006973 147.1956 212.9632 13.55613670 79102
QIANFAN-37              
1 62238U 24232B   26064.27751580  .00000087  00000+0  11656-3 0  9993
2 62238  89.0052  32.9920 0001706  97.2071 262.9274 13.51005279110313
QIANFAN-38              
1 62239U 24232C   26064.30215285  .00000084  00000+0  11161-3 0  9993
2 62239  89.0059  32.9109 0013451 324.3121  35.7130 13.51003840110375
QIANFAN-39              
1 62240U 24232D   26064.25942533  .00000533  00000+0  21934-3 0  9990
2 62240  89.0057  27.8687 0016519 160.1404 200.0436 14.25436178113147
QIANFAN-40              
1 62241U 24232E   26064.26100509  .00000077  00000+0  10132-3 0  9992
2 62241  89.0087  32.5227 0012768 333.5297  26.5200 13.51003032110731
QIANFAN-41              
1 62242U 24232F   26064.26927676  .00000086  00000+0  11484-3 0  9996
2 62242  89.0057  32.8644 0012748 320.4887  39.5334 13.51004735110398
QIANFAN-42              
1 62243U 24232G   26064.23969668  .00000495  00000+0  20687-3 0  9990
2 62243  89.0055  27.9304 0015134 165.6444 194.5181 14.24530036113119
QIANFAN-43              
1 62244U 24232H   26064.26512034  .00000086  00000+0  11468-3 0  9998
2 62244  89.0061  32.9338 0014420 325.3169  34.7041 13.51004764 79008
QIANFAN-44              
1 62245U 24232J   26064.25278508  .00000070  00000+0  89539-4 0  9991
2 62245  89.0059  32.7444 0012564 323.1682  36.8605 13.51002662110476
QIANFAN-45              
1 62246U 24232K   26064.21989565  .00000075  00000+0  97331-4 0  9994
2 62246  89.0063  32.8971 0013208 322.4791  37.5438 13.51000358110390
QIANFAN-46              
1 62247U 24232L   26064.24454182  .00000090  00000+0  12032-3 0  9991
2 62247  89.0059  32.9602 0013439 328.3091  31.7250 13.51003308110354
QIANFAN-47              
1 62248U 24232M   26064.24865350  .00000078  00000+0  10166-3 0  9997
2 62248  89.0055  32.8895 0013831 327.1414  32.8876 13.51003193110387
QIANFAN-48              
1 62249U 24232N   26064.21163012  .00000061  00000+0  76585-4 0  9991
2 62249  89.0058  32.8984 0016171 328.9753  31.0442 13.51003318110384
QIANFAN-49              
1 62250U 24232P   26064.27335308  .00000069  00000+0  89222-4 0  9998
2 62250  89.0058  32.9041 0013079 324.3959  35.6319 13.51002452 78983
QIANFAN-50              
1 62251U 24232Q   26064.29802862  .00000078  00000+0  10220-3 0  9996
2 62251  89.0063  32.9142 0014765 324.9564  35.0615 13.51003424 79011
QIANFAN-51              
1 62252U 24232R   26064.28160241  .00000071  00000+0  92164-4 0  9995
2 62252  89.0057  32.9046 0012403 330.3432  29.7014 13.51004236 79004
